{
  "norad_id": 41882,
  "name": "FENGYUN 4A",
  "history": [
    {
      "epoch": "2026-03-28T22:12:45.362592Z",
      "apogee_km": 35819.69838021504,
      "perigee_km": 35756.67743433513,
      "latitude_deg": -0.7782536954275587,
      "longitude_deg": 123.74596216644238,
      "height_km": 35775.110008442396,
      "semi_major_axis_km": 42166.324907275084,
      "eccentricity": 0.00074729,
      "inclination_deg": 2.1192,
      "raan_deg": 81.0805,
      "arg_perigee_deg": 136.1134,
      "mean_anomaly_deg": 65.9933,
      "mean_motion_rev_day": 1.00266103
    },
    {
      "epoch": "2026-03-28T23:55:50.399904Z",
      "apogee_km": 35819.703563560695,
      "perigee_km": 35756.6901942121,
      "latitude_deg": -1.5578151345261868,
      "longitude_deg": 123.74534370714022,
      "height_km": 35789.08755384532,
      "semi_major_axis_km": 42166.3338788864,
      "eccentricity": 0.0007472,
      "inclination_deg": 2.1194,
      "raan_deg": 81.0791,
      "arg_perigee_deg": 136.1368,
      "mean_anomaly_deg": 91.8114,
      "mean_motion_rev_day": 1.00266071
    },
    {
      "epoch": "2026-03-29T19:12:38.618208Z",
      "apogee_km": 35819.75651144853,
      "perigee_km": 35756.827332925066,
      "latitude_deg": 0.8150600310117352,
      "longitude_deg": 123.70853368082666,
      "height_km": 35758.47391241492,
      "semi_major_axis_km": 42166.4289221868,
      "eccentricity": 0.0007462,
      "inclination_deg": 2.1217,
      "raan_deg": 81.0713,
      "arg_perigee_deg": 136.1462,
      "mean_anomaly_deg": 21.7866,
      "mean_motion_rev_day": 1.00265732
    },
    {
      "epoch": "2026-03-30T06:43:59.310912Z",
      "apogee_km": 35819.732923591735,
      "perigee_km": 35756.971477735686,
      "latitude_deg": -1.039519101377163,
      "longitude_deg": 123.64431212201549,
      "height_km": 35818.31469261258,
      "semi_major_axis_km": 42166.48920066372,
      "eccentricity": 0.00074421,
      "inclination_deg": 2.1231,
      "raan_deg": 81.0666,
      "arg_perigee_deg": 136.2033,
      "mean_anomaly_deg": 195.0336,
      "mean_motion_rev_day": 1.00265517
    },
    {
      "epoch": "2026-03-30T10:09:24.607008Z",
      "apogee_km": 35819.73105566064,
      "perigee_km": 35757.0159612512,
      "latitude_deg": 0.7930880837708232,
      "longitude_deg": 123.5545338447379,
      "height_km": 35800.16812305651,
      "semi_major_axis_km": 42166.510508455925,
      "eccentricity": 0.00074366,
      "inclination_deg": 2.1234,
      "raan_deg": 81.0657,
      "arg_perigee_deg": 136.2351,
      "mean_anomaly_deg": 246.4954,
      "mean_motion_rev_day": 1.00265441
    },
    {
      "epoch": "2026-03-30T22:08:15.130176Z",
      "apogee_km": 35819.6854097171,
      "perigee_km": 35757.172632259666,
      "latitude_deg": -0.8051522295524706,
      "longitude_deg": 123.7009531694682,
      "height_km": 35775.92547178808,
      "semi_major_axis_km": 42166.566020988386,
      "eccentricity": 0.00074126,
      "inclination_deg": 2.1248,
      "raan_deg": 81.0612,
      "arg_perigee_deg": 135.9889,
      "mean_anomaly_deg": 66.938,
      "mean_motion_rev_day": 1.00265243
    }
  ]
}